SENTINEL-6              
1 46984U 20086A   24213.42263993 -.00000070  00000+0 -39745-4 0  9997
2 46984  66.0416 119.3952 0007819 269.9557  90.0562 12.80930121172496
